[{"OBJECT_NAME":"STARLINK-2364","OBJECT_ID":"2021-021AW","EPOCH":"2026-03-09T17:07:11.006112","MEAN_MOTION":15.30178556,"ECCENTRICITY":9.198e-5,"INCLINATION":53.1596,"RA_OF_ASC_NODE":255.1801,"ARG_OF_PERICENTER":95.2862,"MEAN_ANOMALY":264.8244,"EPHEMERIS_TYPE":0,"CLASSIFICATION_TYPE":"U","NORAD_CAT_ID":47904,"ELEMENT_SET_NO":999,"REV_AT_EPOCH":27641,"BSTAR":-7.6354232e-5,"MEAN_MOTION_DOT":-2.618e-5,"MEAN_MOTION_DDOT":0},{"OBJECT_NAME":"GHGSAT-C5","OBJECT_ID":"2022-057N","EPOCH":"2026-03-09T21:50:12.501024","MEAN_MOTION":15.32921902,"ECCENTRICITY":0.00082696,"INCLINATION":97.6522,"RA_OF_ASC_NODE":212.4963,"ARG_OF_PERICENTER":109.8004,"MEAN_ANOMALY":250.413,"EPHEMERIS_TYPE":0,"CLASSIFICATION_TYPE":"U","NORAD_CAT_ID":52744,"ELEMENT_SET_NO":999,"REV_AT_EPOCH":21032,"BSTAR":0.00029214604,"MEAN_MOTION_DOT":9.218e-5,"MEAN_MOTION_DDOT":0}]
